[{"OBJECT_NAME":"STARLINK-31477","OBJECT_ID":"2024-056U","EPOCH":"2026-03-09T12:14:15.963072","MEAN_MOTION":15.27571549,"ECCENTRICITY":0.00013809,"INCLINATION":43.0032,"RA_OF_ASC_NODE":224.2127,"ARG_OF_PERICENTER":259.8227,"MEAN_ANOMALY":100.2469,"EPHEMERIS_TYPE":0,"CLASSIFICATION_TYPE":"U","NORAD_CAT_ID":59314,"ELEMENT_SET_NO":999,"REV_AT_EPOCH":11121,"BSTAR":-3.4475251e-5,"MEAN_MOTION_DOT":-1.21e-5,"MEAN_MOTION_DDOT":0},{"OBJECT_NAME":"ELECTRON KICK STAGE R\/B","OBJECT_ID":"2024-248B","EPOCH":"2026-03-09T20:49:52.700448","MEAN_MOTION":15.26602112,"ECCENTRICITY":0.00382118,"INCLINATION":97.6105,"RA_OF_ASC_NODE":34.9036,"ARG_OF_PERICENTER":284.4829,"MEAN_ANOMALY":75.2171,"EPHEMERIS_TYPE":0,"CLASSIFICATION_TYPE":"U","NORAD_CAT_ID":62407,"ELEMENT_SET_NO":999,"REV_AT_EPOCH":6727,"BSTAR":0.0006831254,"MEAN_MOTION_DOT":0.00018217,"MEAN_MOTION_DDOT":0}]
